{
  "type": "FeatureCollection",
  "features": [
    {
      "type": "Feature",
      "properties": {
        "norad_id": 36106,
        "name": "INTELSAT 15 (IS-15)",
        "group": "intelsat",
        "lat": NaN,
        "lon": NaN,
        "alt_km": NaN,
        "timestamp": "2025-12-01T03:08:33.642803+00:00",
        "meta": {
          "OBJECT_NAME": "INTELSAT 15 (IS-15)",
          "OBJECT_ID": "2009-067A",
          "EPOCH": "2025-11-30T19:23:08.659104",
          "MEAN_MOTION": 1.00271167,
          "ECCENTRICITY": 0.0002349,
          "INCLINATION": 0.0423,
          "RA_OF_ASC_NODE": 92.7537,
          "ARG_OF_PERICENTER": 153.1252,
          "MEAN_ANOMALY": 200.0147,
          "EPHEMERIS_TYPE": 0,
          "CLASSIFICATION_TYPE": "U",
          "NORAD_CAT_ID": 36106,
          "ELEMENT_SET_NO": 999,
          "REV_AT_EPOCH": 3924,
          "BSTAR": 0,
          "MEAN_MOTION_DOT": -1.64e-06,
          "MEAN_MOTION_DDOT": 0
        }
      },
      "geometry": {
        "type": "Point",
        "coordinates": [
          NaN,
          NaN
        ]
      }
    },
    {
      "type": "Feature",
      "properties": {
        "norad_id": 36131,
        "name": "DIRECTV 12",
        "group": "intelsat",
        "lat": NaN,
        "lon": NaN,
        "alt_km": NaN,
        "timestamp": "2025-12-01T03:08:33.643218+00:00",
        "meta": {
          "OBJECT_NAME": "DIRECTV 12",
          "OBJECT_ID": "2009-075A",
          "EPOCH": "2025-11-30T15:03:37.536192",
          "MEAN_MOTION": 1.00272179,
          "ECCENTRICITY": 9.2e-06,
          "INCLINATION": 0.0266,
          "RA_OF_ASC_NODE": 136.497,
          "ARG_OF_PERICENTER": 60.1546,
          "MEAN_ANOMALY": 356.3093,
          "EPHEMERIS_TYPE": 0,
          "CLASSIFICATION_TYPE": "U",
          "NORAD_CAT_ID": 36131,
          "ELEMENT_SET_NO": 999,
          "REV_AT_EPOCH": 4456,
          "BSTAR": 0,
          "MEAN_MOTION_DOT": -8.2e-07,
          "MEAN_MOTION_DDOT": 0
        }
      },
      "geometry": {
        "type": "Point",
        "coordinates": [
          NaN,
          NaN
        ]
      }
    },
    {
      "type": "Feature",
      "properties": {
        "norad_id": 36397,
        "name": "INTELSAT 16 (IS-16)",
        "group": "intelsat",
        "lat": NaN,
        "lon": NaN,
        "alt_km": NaN,
        "timestamp": "2025-12-01T03:08:33.643655+00:00",
        "meta": {
          "OBJECT_NAME": "INTELSAT 16 (IS-16)",
          "OBJECT_ID": "2010-006A",
          "EPOCH": "2025-11-30T18:36:54.138240",
          "MEAN_MOTION": 1.00268135,
          "ECCENTRICITY": 0.0002304,
          "INCLINATION": 0.0097,
          "RA_OF_ASC_NODE": 312.9889,
          "ARG_OF_PERICENTER": 293.2993,
          "MEAN_ANOMALY": 26.6497,
          "EPHEMERIS_TYPE": 0,
          "CLASSIFICATION_TYPE": "U",
          "NORAD_CAT_ID": 36397,
          "ELEMENT_SET_NO": 999,
          "REV_AT_EPOCH": 5766,
          "BSTAR": 0,
          "MEAN_MOTION_DOT": -2.23e-06,
          "MEAN_MOTION_DDOT": 0
        }
      },
      "geometry": {
        "type": "Point",
        "coordinates": [
          NaN,
          NaN
        ]
      }
    },
    {
      "type": "Feature",
      "properties": {
        "norad_id": 37185,
        "name": "XM-5",
        "group": "intelsat",
        "lat": NaN,
        "lon": NaN,
        "alt_km": NaN,
        "timestamp": "2025-12-01T03:08:33.644093+00:00",
        "meta": {
          "OBJECT_NAME": "XM-5",
          "OBJECT_ID": "2010-053A",
          "EPOCH": "2025-11-30T16:43:12.524736",
          "MEAN_MOTION": 1.00270804,
          "ECCENTRICITY": 0.0001603,
          "INCLINATION": 0.0642,
          "RA_OF_ASC_NODE": 272.1854,
          "ARG_OF_PERICENTER": 241.4088,
          "MEAN_ANOMALY": 51.8583,
          "EPHEMERIS_TYPE": 0,
          "CLASSIFICATION_TYPE": "U",
          "NORAD_CAT_ID": 37185,
          "ELEMENT_SET_NO": 999,
          "REV_AT_EPOCH": 5549,
          "BSTAR": 0,
          "MEAN_MOTION_DOT": -1e-08,
          "MEAN_MOTION_DDOT": 0
        }
      },
      "geometry": {
        "type": "Point",
        "coordinates": [
          NaN,
          NaN
        ]
      }
    },
    {
      "type": "Feature",
      "properties": {
        "norad_id": 37238,
        "name": "INTELSAT 17 (IS-17)",
        "group": "intelsat",
        "lat": NaN,
        "lon": NaN,
        "alt_km": NaN,
        "timestamp": "2025-12-01T03:08:33.644535+00:00",
        "meta": {
          "OBJECT_NAME": "INTELSAT 17 (IS-17)",
          "OBJECT_ID": "2010-065B",
          "EPOCH": "2025-11-30T19:17:39.184800",
          "MEAN_MOTION": 1.00271522,
          "ECCENTRICITY": 0.0002644,
          "INCLINATION": 0.0093,
          "RA_OF_ASC_NODE": 298.6252,
          "ARG_OF_PERICENTER": 324.7969,
          "MEAN_ANOMALY": 161.9242,
          "EPHEMERIS_TYPE": 0,
          "CLASSIFICATION_TYPE": "U",
          "NORAD_CAT_ID": 37238,
          "ELEMENT_SET_NO": 999,
          "REV_AT_EPOCH": 5125,
          "BSTAR": 0,
          "MEAN_MOTION_DOT": 2e-07,
          "MEAN_MOTION_DDOT": 0
        }
      },
      "geometry": {
        "type": "Point",
        "coordinates": [
          NaN,
          NaN
        ]
      }
    },
    {
      "type": "Feature",
      "properties": {
        "norad_id": 37392,
        "name": "INTELSAT 28 (IS-28)",
        "group": "intelsat",
        "lat": NaN,
        "lon": NaN,
        "alt_km": NaN,
        "timestamp": "2025-12-01T03:08:33.644930+00:00",
        "meta": {
          "OBJECT_NAME": "INTELSAT 28 (IS-28)",
          "OBJECT_ID": "2011-016A",
          "EPOCH": "2025-11-30T18:49:41.862720",
          "MEAN_MOTION": 1.00270297,
          "ECCENTRICITY": 0.0004038,
          "INCLINATION": 1.2908,
          "RA_OF_ASC_NODE": 85.2006,
          "ARG_OF_PERICENTER": 170.6705,
          "MEAN_ANOMALY": 64.7657,
          "EPHEMERIS_TYPE": 0,
          "CLASSIFICATION_TYPE": "U",
          "NORAD_CAT_ID": 37392,
          "ELEMENT_SET_NO": 999,
          "REV_AT_EPOCH": 5129,
          "BSTAR": 0,
          "MEAN_MOTION_DOT": -2.03e-06,
          "MEAN_MOTION_DDOT": 0
        }
      },
      "geometry": {
        "type": "Point",
        "coordinates": [
          NaN,
          NaN
        ]
      }
    },
    {
      "type": "Feature",
      "properties": {
        "norad_id": 37834,
        "name": "INTELSAT 18 (IS-18)",
        "group": "intelsat",
        "lat": NaN,
        "lon": NaN,
        "alt_km": NaN,
        "timestamp": "2025-12-01T03:08:33.645377+00:00",
        "meta": {
          "OBJECT_NAME": "INTELSAT 18 (IS-18)",
          "OBJECT_ID": "2011-056A",
          "EPOCH": "2025-11-30T18:07:26.956704",
          "MEAN_MOTION": 1.00270632,
          "ECCENTRICITY": 0.0001965,
          "INCLINATION": 0.0174,
          "RA_OF_ASC_NODE": 313.6651,
          "ARG_OF_PERICENTER": 293.4312,
          "MEAN_ANOMALY": 274.6543,
          "EPHEMERIS_TYPE": 0,
          "CLASSIFICATION_TYPE": "U",
          "NORAD_CAT_ID": 37834,
          "ELEMENT_SET_NO": 999,
          "REV_AT_EPOCH": 5182,
          "BSTAR": 0,
          "MEAN_MOTION_DOT": 7.5e-07,
          "MEAN_MOTION_DDOT": 0
        }
      },
      "geometry": {
        "type": "Point",
        "coordinates": [
          NaN,
          NaN
        ]
      }
    },
    {
      "type": "Feature",
      "properties": {
        "norad_id": 38098,
        "name": "INTELSAT 22 (IS-22)",
        "group": "intelsat",
        "lat": NaN,
        "lon": NaN,
        "alt_km": NaN,
        "timestamp": "2025-12-01T03:08:33.645783+00:00",
        "meta": {
          "OBJECT_NAME": "INTELSAT 22 (IS-22)",
          "OBJECT_ID": "2012-011A",
          "EPOCH": "2025-11-30T19:19:24.018240",
          "MEAN_MOTION": 1.00271737,
          "ECCENTRICITY": 0.0001723,
          "INCLINATION": 0.014,
          "RA_OF_ASC_NODE": 328.6942,
          "ARG_OF_PERICENTER": 286.9176,
          "MEAN_ANOMALY": 176.2785,
          "EPHEMERIS_TYPE": 0,
          "CLASSIFICATION_TYPE": "U",
          "NORAD_CAT_ID": 38098,
          "ELEMENT_SET_NO": 999,
          "REV_AT_EPOCH": 519,
          "BSTAR": 0,
          "MEAN_MOTION_DOT": -3.7e-07,
          "MEAN_MOTION_DDOT": 0
        }
      },
      "geometry": {
        "type": "Point",
        "coordinates": [
          NaN,
          NaN
        ]
      }
    }
  ]
}