INTELSAT 15 (IS-15)     
1 36106U 09067A   25334.80773911 -.00000164  00000+0  00000+0 0  9991
2 36106   0.0423  92.7537 0002349 153.1252 200.0147  1.00271167 39244
DIRECTV 12              
1 36131U 09075A   25334.62751778 -.00000082  00000+0  00000+0 0  9994
2 36131   0.0266 136.4970 0000092  60.1546 356.3093  1.00272179 44560
INTELSAT 16 (IS-16)     
1 36397U 10006A   25334.77562660 -.00000223  00000+0  00000+0 0  9997
2 36397   0.0097 312.9889 0002304 293.2993  26.6497  1.00268135 57666
XM-5                    
1 37185U 10053A   25334.69667274 -.00000001  00000+0  00000+0 0  9997
2 37185   0.0642 272.1854 0001603 241.4088  51.8583  1.00270804 55499
INTELSAT 17 (IS-17)     
1 37238U 10065B   25334.80392575  .00000020  00000+0  00000+0 0  9991
2 37238   0.0093 298.6252 0002644 324.7969 161.9242  1.00271522 51255
INTELSAT 28 (IS-28)     
1 37392U 11016A   25334.78451230 -.00000203  00000+0  00000+0 0  9994
2 37392   1.2908  85.2006 0004038 170.6705  64.7657  1.00270297 51298
INTELSAT 18 (IS-18)     
1 37834U 11056A   25334.75517311  .00000075  00000+0  00000+0 0  9995
2 37834   0.0174 313.6651 0001965 293.4312 274.6543  1.00270632 51827
INTELSAT 22 (IS-22)     
1 38098U 12011A   25334.80513910 -.00000037  00000+0  00000+0 0  9996
2 38098   0.0140 328.6942 0001723 286.9176 176.2785  1.00271737  5190
